ONEWEB-0300             
1 49089U 21075Q   25220.91277451  .00000449  00000+0  12113-2 0  9998
2 49089  87.8847  52.7232 0002095  88.9882 271.1486 13.12442265194243
ONEWEB-0301             
1 49090U 21075R   25220.89654644  .00000383  00000+0  10283-2 0  9993
2 49090  87.8847  52.7320 0002222  88.6462 271.4921 13.12445027193601
ONEWEB-0302             
1 49091U 21075S   25220.80735150 -.00000150  00000+0 -45226-3 0  9997
2 49091  87.8855  52.7532 0001391  84.9250 275.2037 13.12442260193578
ONEWEB-0304             
1 49092U 21075T   25220.84286016  .00000019  00000+0  14609-4 0  9998
2 49092  87.9030  68.0233 0001687  89.4170 270.7155 13.17650810192445
ONEWEB-0305             
1 49093U 21075U   25220.83613365  .00000976  00000+0  24796-2 0  9997
2 49093  87.9030  68.0006 0001573 100.4023 259.7286 13.17641952192471
ONEWEB-0308             
1 49094U 21075V   25220.80084727 -.00000367  00000+0 -10546-2 0  9993
2 49094  87.8849  52.7475 0001768  87.6141 272.5190 13.12442598193582
ONEWEB-0309             
1 49095U 21075W   25220.61168504  .00000073  00000+0  15436-3 0  9995
2 49095  87.9029  68.0630 0001384  77.2658 282.8628 13.17648559192410
ONEWEB-0310             
1 49096U 21075X   25220.89167731  .00000065  00000+0  14573-3 0  9999
2 49096  87.8851  52.7751 0001709  88.2102 271.9223 13.12443820194224
